STARLINK-2022           
1 47643U 21012Z   24226.05068840  .00095717  00000+0  63517-2 0  9999
2 47643  53.0529 106.7827 0001449 120.8761 239.2371 15.06437878193283
